BEIDOU-3 M14            
1 43623U 18072B   26141.01651781 -.00000043  00000+0  00000+0 0  9995
2 43623  56.6039  63.5506 0006644 349.8463  10.1373  1.86231174 52141
BEIDOU-3 M16            
1 43647U 18078A   26140.09835406 -.00000057  00000+0  00000+0 0  9997
2 43647  54.1165 300.9702 0007815  40.0610 319.9715  1.86232228 51635
BEIDOU-3 M15            
1 43648U 18078B   26140.76460782 -.00000059  00000+0  00000+0 0  9995
2 43648  54.1122 300.9473 0004911  54.1779 305.8440  1.86232191 51661
BEIDOU-3 G1             
1 43683U 18085A   26141.26644127 -.00000115  00000+0  00000+0 0  9998
2 43683   2.8010  98.1005 0007834 341.6739  55.0256  1.00271308 27795
BEIDOU-3 M17            
1 43706U 18093A   26138.35612889  .00000068  00000+0  00000+0 0  9995
2 43706  54.1671 183.3085 0009685 290.9034 146.3367  1.86228319 50981
BEIDOU-3 M18            
1 43707U 18093B   26140.25184819  .00000042  00000+0  00000+0 0  9997
2 43707  54.1675 183.2362 0007661 320.8640  39.1548  1.86226636 51016
BEIDOU-3 IGSO-1         
1 44204U 19023A   26132.76772565 -.00000227  00000+0  00000+0 0  9998
2 44204  58.6468  38.0171 0023856 234.3090 349.8662  1.00250503  6851
BEIDOU-2 G8             
1 44231U 19027A   26141.26340793 -.00000254  00000+0  00000+0 0  9991
2 44231   1.5912  74.4393 0010661 280.4599 123.3591  1.00270041 25810
BEIDOU-3 IGSO-2         
1 44337U 19035A   26139.63539042 -.00000079  00000+0  00000+0 0  9997
2 44337  55.2397 159.1126 0039530 216.4700 210.4277  1.00275192 25387
BEIDOU-3 M24            
1 44542U 19061A   26138.71000030  .00000063  00000+0  00000+0 0  9994
2 44542  54.3946 183.7224 0008104   2.2615 357.8273  1.86229135 45245
BEIDOU-3 M23            
1 44543U 19061B   26139.39368032  .00000053  00000+0  00000+0 0  9998
2 44543  54.3929 183.6676 0005334 341.1368  29.0987  1.86227410 45265
BEIDOU-3 IGSO-3         
1 44709U 19073A   26120.85038409 -.00000212  00000+0  00000+0 0  9996
2 44709  54.8842 281.4069 0042404 188.8195 170.9972  1.00251230 23982
BEIDOU-3 M22            
1 44793U 19078A   26140.69720878 -.00000059  00000+0  00000+0 0  9995
2 44793  53.9622 300.7946 0007006  49.4418 310.5953  1.86227051 44138
BEIDOU-3 M21            
1 44794U 19078B   26140.30023819 -.00000058  00000+0  00000+0 0  9994
2 44794  53.9356 300.7703 0004913  46.7831 313.2332  1.86227586 44131
BEIDOU-3 M19            
1 44864U 19090A   26140.17168096 -.00000042  00000+0  00000+0 0  9991
2 44864  56.5361  63.7167 0018959 297.3569 173.5727  1.86231025 43712
BEIDOU-3 M20            
1 44865U 19090B   26141.22108222 -.00000044  00000+0  00000+0 0  9996
2 44865  56.5382  63.7162 0016692 310.3692 233.7260  1.86231080 43718
BEIDOU-3 G2             
1 45344U 20017A   26141.17921936 -.00000147  00000+0  00000+0 0  9993
2 45344   2.8116  46.9229 0002289   8.4197 328.0473  1.00271096 22986
BEIDOU-3 G3             
1 45807U 20040A   26141.25664789 -.00000360  00000+0  00000+0 0  9999
2 45807   2.3828  67.3715 0003024 332.1640  42.3116  1.00270296 21801
BEIDOU-3 G4             
1 56564U 23066A   26141.32614133 -.00000288  00000+0  00000+0 0  9997
2 56564   0.5205 325.1351 0003583 172.4332 358.8690  1.00273153 11127
BEIDOU-3 M28            
1 58654U 23207A   26140.91436544 -.00000045  00000+0  00000+0 0  9999
2 58654  55.7298  63.2230 0004042 334.1810  25.7958  1.86229665 16336
BEIDOU-3 M26            
1 58655U 23207B   26140.17490119 -.00000044  00000+0  00000+0 0  9995
2 58655  55.7314  63.2344 0004197 311.9075  48.0520  1.86229621 16301
BEIDOU-3 M25            
1 61186U 24168B   26140.53659118 -.00000060  00000+0  00000+0 0  9999
2 61186  54.4989 303.2022 0002977 311.8004  47.9125  1.86229824 11267
BEIDOU-3 M27            
1 61187U 24168C   26140.59938868 -.00000060  00000+0  00000+0 0  9998
2 61187  54.4942 303.1830 0002146  47.7364 129.0996  1.86229911  8749
